NIMIQ 2                 
1 27632U 02062A   26182.56014723 -.00000064  00000+0  00000+0 0  9996
2 27632   9.4772  56.7442 0005701  39.6464 275.6923  1.00272191 44324
ANIK F2                 
1 28378U 04027A   26182.56130242 -.00000042  00000+0  00000+0 0  9998
2 28378   3.3226  79.2576 0004126  19.1211 272.1819  1.00271908 41407
ANIK F1R                
1 28868U 05036A   26182.55991572 -.00000068  00000+0  00000+0 0  9991
2 28868   4.3474  76.4067 0004363  12.5265 284.9476  1.00272119 46590
ANIK F3                 
1 31102U 07009A   26182.56105304  .00000009  00000+0  00000+0 0  9993
2 31102   1.2328  83.6964 0002887  14.8410 264.3427  1.00271282 46702
NIMIQ 4                 
1 33373U 08044A   26182.49698292  .00000000  00000+0  00000+0 0  9991
2 33373   0.0383  60.1077 0001867  45.3791 271.0219  1.00267256 65122
TELSTAR 11N             
1 34111U 09009A   26182.50582296 -.00000240  00000+0  00000+0 0  9999
2 34111   0.0186  30.8234 0002725  65.8271 327.4450  1.00273470 46382
TERRESTAR-1             
1 35496U 09035A   26182.56130216 -.00000049  00000+0  00000+0 0  9999
2 35496   5.1816  48.7900 0002661  42.5439 279.3303  1.00272351 62275
NIMIQ 5                 
1 35873U 09050A   26182.49888959 -.00000246  00000+0  00000+0 0  9990
2 35873   0.0280 282.0880 0003009 170.1696 294.1911  1.00270771 61489
SKYTERRA 1              
1 37218U 10061A   26182.55761089 -.00000110  00000+0  00000+0 0  9990
2 37218   5.1540  50.8295 0002399  35.9348 292.2807  1.00270670 57333
TELSTAR 14R             
1 37602U 11021A   26182.50079627 -.00000269  00000+0  00000+0 0  9994
2 37602   0.0526  81.8295 0002339 353.8641 321.1582  1.00271452 55973
NIMIQ 6                 
1 38342U 12026A   26182.49524957 -.00000163  00000+0  00000+0 0  9994
2 38342   0.0428 276.6675 0002928 184.7867 265.2803  1.00272631 50550
ANIK G1                 
1 39127U 13014A   26182.55976277 -.00000064  00000+0  00000+0 0  9997
2 39127   0.0182 346.2027 0001967 115.6502 271.9658  1.00272017 48394
TELSTAR 12V             
1 41036U 15068A   26182.43900052 -.00000108  00000+0  00000+0 0  9994
2 41036   0.0194  42.2854 0002535  55.3652 324.8934  1.00271585 38762
VIASAT-2                
1 42740U 17029A   26180.57460944 -.00000254  00000+0  00000+0 0  9992
2 42740   0.0183 302.2304 0000500 140.7256 331.6830  1.00273030 33326
LEO 1 (LEO VANTAGE 1)   
1 43113U 18004C   26182.36054554  .00005832  00000+0  40033-3 0  9996
2 43113  99.2431 102.4996 0350554  36.1117 326.3218 14.67916521439568
TELSTAR 19V             
1 43562U 18059A   26182.50079627 -.00000269  00000+0  00000+0 0  9994
2 43562   0.0231 129.7660 0003114 349.9729 277.0975  1.00270601 29286
TELSTAR 18V             
1 43611U 18069A   26181.97026081 -.00000283  00000+0  00000+0 0  9992
2 43611   0.0175 302.5030 0002215 152.1071 311.7084  1.00273522 28770
AMOS-17                 
1 44479U 19050A   26182.16018227  .00000120  00000+0  00000+0 0  9990
2 44479   0.0377 299.6895 0002499 191.8895 222.3077  1.00273734 25322
